[{"OBJECT_NAME":"STARLINK-2525","OBJECT_ID":"2021-040BG","EPOCH":"2026-03-09T21:41:38.769216","MEAN_MOTION":15.30214878,"ECCENTRICITY":0.00011336,"INCLINATION":53.1603,"RA_OF_ASC_NODE":192.9438,"ARG_OF_PERICENTER":85.7988,"MEAN_ANOMALY":274.3142,"EPHEMERIS_TYPE":0,"CLASSIFICATION_TYPE":"U","NORAD_CAT_ID":48482,"ELEMENT_SET_NO":999,"REV_AT_EPOCH":26649,"BSTAR":0.00016690381,"MEAN_MOTION_DOT":4.589e-5,"MEAN_MOTION_DDOT":0},{"OBJECT_NAME":"YAOGAN-43 01F","OBJECT_ID":"2024-148F","EPOCH":"2026-03-10T00:23:08.877408","MEAN_MOTION":15.29824616,"ECCENTRICITY":0.00057048,"INCLINATION":34.9925,"RA_OF_ASC_NODE":59.8891,"ARG_OF_PERICENTER":18.4862,"MEAN_ANOMALY":341.6062,"EPHEMERIS_TYPE":0,"CLASSIFICATION_TYPE":"U","NORAD_CAT_ID":60463,"ELEMENT_SET_NO":999,"REV_AT_EPOCH":8707,"BSTAR":0.00058388219,"MEAN_MOTION_DOT":0.00017308,"MEAN_MOTION_DDOT":0}]
